COMMENT,ORIGINATOR,NORAD_CAT_ID,OBJECT_NAME,OBJECT_TYPE,CLASSIFICATION_TYPE,INTLDES,EPOCH,EPOCH_MICROSECONDS,MEAN_MOTION,ECCENTRICITY,INCLINATION,RA_OF_ASC_NODE,ARG_OF_PERICENTER,MEAN_ANOMALY,EPHEMERIS_TYPE,ELEMENT_SET_NO,REV_AT_EPOCH,BSTAR,MEAN_MOTION_DOT,MEAN_MOTION_DDOT,FILE,TLE_LINE0,TLE_LINE1,TLE_LINE2,OBJECT_ID,OBJECT_NUMBER,SEMIMAJOR_AXIS,PERIOD,APOGEE,PERIGEE,DECAYED,date
GENERATED VIA SPACETRACK.ORG API,18 SPCS,48899,SPACEBEE-110,PAYLOAD,U,21059W,2023/2/16 8:33,598048,15.23774717,0.0008754,97.5794,182.7507,331.4783,28.5974,0,999,9097,0.0018736,0.00045286,0,3796493,0 SPACEBEE-110,1 48899U 21059W   23047.35628007  .00045286  00000-0  18736-2 0  9994,2 48899  97.5794 182.7507 0008754 331.4783  28.5974 15.23774717 90978,2021-059W,48899,6872.604,94.502,500.485,488.453,0,2023/4/3
GENERATED VIA SPACETRACK.ORG API,18 SPCS,48899,SPACEBEE-110,PAYLOAD,U,21059W,2023/2/16 14:51,358624,15.23800582,0.0008725,97.5793,183.0163,330.4109,29.6633,0,999,9101,0.001927,0.00046622,0,3798293,0 SPACEBEE-110,1 48899U 21059W   23047.61895091  .00046622  00000-0  19270-2 0  9991,2 48899  97.5793 183.0163 0008725 330.4109  29.6633 15.23800582 91018,2021-059W,48899,6872.526,94.501,500.388,488.395,0,2023/4/4
GENERATED VIA SPACETRACK.ORG API,18 SPCS,48899,SPACEBEE-110,PAYLOAD,U,21059W,2023/2/17 8:11,243808,15.23856563,0.0008712,97.579,183.7464,327.7571,32.3132,0,999,9112,0.0014809,0.0003582,0,3802730,0 SPACEBEE-110,1 48899U 21059W   23048.34127597  .00035820  00000-0  14809-2 0  9992,2 48899  97.5790 183.7464 0008712 327.7571  32.3132 15.23856563 91121,2021-059W,48899,6872.358,94.497,500.21,488.236,0,2023/4/5
GENERATED VIA SPACETRACK.ORG API,18 SPCS,48899,SPACEBEE-110,PAYLOAD,U,21059W,2023/2/17 8:11,243808,15.23856563,0.0008712,97.579,183.7464,327.7571,32.3132,0,999,9112,0.0014809,0.0003582,0,3803582,0 SPACEBEE-110,1 48899U 21059W   23048.34127597  .00035820  00000-0  14809-2 0  9992,2 48899  97.5790 183.7464 0008712 327.7571  32.3132 15.23856563 91121,2021-059W,48899,6872.358,94.497,500.21,488.236,0,2023/4/6
GENERATED VIA SPACETRACK.ORG API,18 SPCS,48899,SPACEBEE-110,PAYLOAD,U,21059W,2023/2/17 20:47,231712,15.23890091,0.0008723,97.5792,184.2774,325.7565,34.3109,0,999,9120,0.0012379,0.00029936,0,3804075,0 SPACEBEE-110,1 48899U 21059W   23048.86658833  .00029936  00000-0  12379-2 0  9992,2 48899  97.5792 184.2774 0008723 325.7565  34.3109 15.23890091 91205,2021-059W,48899,6872.257,94.495,500.117,488.128,0,2023/4/7
GENERATED VIA SPACETRACK.ORG API,18 SPCS,48899,SPACEBEE-110,PAYLOAD,U,21059W,2023/2/18 7:49,86240,15.23916923,0.0008767,97.5793,184.7424,324.2462,35.8187,0,999,9127,0.0011795,0.00028538,0,3806489,0 SPACEBEE-110,1 48899U 21059W   23049.32622785  .00028538  00000-0  11795-2 0  9999,2 48899  97.5793 184.7424 0008767 324.2462  35.8187 15.23916923 91273,2021-059W,48899,6872.177,94.493,500.066,488.017,0,2023/4/8
GENERATED VIA SPACETRACK.ORG API,18 SPCS,48899,SPACEBEE-110,PAYLOAD,U,21059W,2023/2/18 7:49,86240,15.23916923,0.0008767,97.5793,184.7424,324.2462,35.8187,0,999,9127,0.0011795,0.00028538,0,3807124,0 SPACEBEE-110,1 48899U 21059W   23049.32622785  .00028538  00000-0  11795-2 0  9999,2 48899  97.5793 184.7424 0008767 324.2462  35.8187 15.23916923 91273,2021-059W,48899,6872.177,94.493,500.066,488.017,0,2023/4/9
GENERATED VIA SPACETRACK.ORG API,18 SPCS,48899,SPACEBEE-110,PAYLOAD,U,21059W,2023/2/19 15:20,513184,15.23992213,0.0008775,97.5809,186.0703,319.9489,40.11,0,999,9147,0.0011082,0.00026863,0,3811236,0 SPACEBEE-110,1 48899U 21059W   23050.63943881  .00026863  00000-0  11082-2 0  9996,2 48899  97.5809 186.0703 0008775 319.9489  40.1100 15.23992213 91477,2021-059W,48899,6871.95,94.489,499.845,487.785,0,2023/4/10
GENERATED VIA SPACETRACK.ORG API,18 SPCS,48899,SPACEBEE-110,PAYLOAD,U,21059W,2023/2/19 15:20,513184,15.23992213,0.0008775,97.5809,186.0703,319.9489,40.11,0,999,9147,0.0011082,0.00026863,0,3811610,0 SPACEBEE-110,1 48899U 21059W   23050.63943881  .00026863  00000-0  11082-2 0  9996,2 48899  97.5809 186.0703 0008775 319.9489  40.1100 15.23992213 91477,2021-059W,48899,6871.95,94.489,499.845,487.785,0,2023/4/11
GENERATED VIA SPACETRACK.ORG API,18 SPCS,48899,SPACEBEE-110,PAYLOAD,U,21059W,2023/2/20 8:40,950688,15.24033763,0.0008713,97.581,186.8005,317.6894,42.367,0,999,9158,0.0011293,0.00027411,0,3815761,0 SPACEBEE-110,1 48899U 21059W   23051.36167767  .00027411  00000-0  11293-2 0  9992,2 48899  97.5810 186.8005 0008713 317.6894  42.3670 15.24033763 91584,2021-059W,48899,6871.825,94.486,499.678,487.703,0,2023/4/12
GENERATED VIA SPACETRACK.ORG API,18 SPCS,48899,SPACEBEE-110,PAYLOAD,U,21059W,2023/2/20 22:51,458912,15.24065742,0.0008722,97.5812,187.3977,315.1726,44.8806,0,999,9167,0.0011085,0.00026929,0,3817230,0 SPACEBEE-110,1 48899U 21059W   23051.95258633  .00026929  00000-0  11085-2 0  9992,2 48899  97.5812 187.3977 0008722 315.1726  44.8806 15.24065742 91677,2021-059W,48899,6871.729,94.484,499.588,487.601,0,2023/4/13
GENERATED VIA SPACETRACK.ORG API,18 SPCS,48899,SPACEBEE-110,PAYLOAD,U,21059W,2023/2/21 14:37,223392,15.24109192,0.0008792,97.5812,188.0615,312.5841,47.4653,0,999,9177,0.0013056,0.00031792,0,3819803,0 SPACEBEE-110,1 48899U 21059W   23052.60913453  .00031792  00000-0  13056-2 0  9997,2 48899  97.5812 188.0615 0008792 312.5841  47.4653 15.24109192 91778,2021-059W,48899,6871.599,94.481,499.505,487.422,0,2023/4/14
GENERATED VIA SPACETRACK.ORG API,18 SPCS,48899,SPACEBEE-110,PAYLOAD,U,21059W,2023/2/21 20:55,92864,15.24127314,0.0008721,97.5813,188.3272,311.4682,48.5805,0,999,9181,0.0013173,0.00032096,0,3821329,0 SPACEBEE-110,1 48899U 21059W   23052.87174876  .00032096  00000-0  13173-2 0  9992,2 48899  97.5813 188.3272 0008721 311.4682  48.5805 15.24127314 91816,2021-059W,48899,6871.544,94.48,499.402,487.417,0,2023/4/15
GENERATED VIA SPACETRACK.ORG API,18 SPCS,48899,SPACEBEE-110,PAYLOAD,U,21059W,2023/2/21 22:29,526752,15.24131464,0.0008716,97.5813,188.3936,311.3392,48.7094,0,999,9182,0.0013334,0.00032495,0,3822069,0 SPACEBEE-110,1 48899U 21059W   23052.93740193  .00032495  00000-0  13334-2 0  9992,2 48899  97.5813 188.3936 0008716 311.3392  48.7094 15.24131464 91828,2021-059W,48899,6871.532,94.48,499.386,487.407,0,2023/4/16
GENERATED VIA SPACETRACK.ORG API,18 SPCS,48899,SPACEBEE-110,PAYLOAD,U,21059W,2023/2/22 7:57,784480,15.24153345,0.0008783,97.5813,188.7921,310.0162,50.0303,0,999,9188,0.0011646,0.00028375,0,3824148,0 SPACEBEE-110,1 48899U 21059W   23053.33131695  .00028375  00000-0  11646-2 0  9994,2 48899  97.5813 188.7921 0008783 310.0162  50.0303 15.24153345 91888,2021-059W,48899,6871.466,94.479,499.366,487.296,0,2023/4/17
GENERATED VIA SPACETRACK.ORG API,18 SPCS,48899,SPACEBEE-110,PAYLOAD,U,21059W,2023/2/22 22:07,172288,15.24191019,0.0008744,97.5816,189.3894,307.7027,52.3416,0,999,9197,0.0012371,0.00030187,0,3825529,0 SPACEBEE-110,1 48899U 21059W   23053.92217792  .00030187  00000-0  12371-2 0  9992,2 48899  97.5816 189.3894 0008744 307.7027  52.3416 15.24191019 91977,2021-059W,48899,6871.353,94.476,499.226,487.209,0,2023/4/18
GENERATED VIA SPACETRACK.ORG API,18 SPCS,48899,SPACEBEE-110,PAYLOAD,U,21059W,2023/2/23 7:35,98592,15.24217406,0.0008747,97.5816,189.788,306.3703,53.6727,0,999,9203,0.0013747,0.00033595,0,3827181,0 SPACEBEE-110,1 48899U 21059W   23054.31607753  .00033595  00000-0  13747-2 0  9990,2 48899  97.5816 189.7880 0008747 306.3703  53.6727 15.24217406 92031,2021-059W,48899,6871.273,94.475,499.149,487.128,0,2023/4/19
GENERATED VIA SPACETRACK.ORG API,18 SPCS,48899,SPACEBEE-110,PAYLOAD,U,21059W,2023/2/23 7:35,98592,15.24217406,0.0008747,97.5816,189.788,306.3703,53.6727,0,999,9203,0.0013747,0.00033595,0,3828819,0 SPACEBEE-110,1 48899U 21059W   23054.31607753  .00033595  00000-0  13747-2 0  9990,2 48899  97.5816 189.7880 0008747 306.3703  53.6727 15.24217406 92031,2021-059W,48899,6871.273,94.475,499.149,487.128,0,2023/4/20
GENERATED VIA SPACETRACK.ORG API,18 SPCS,48899,SPACEBEE-110,PAYLOAD,U,21059W,2023/2/23 20:11,489536,15.2424811,0.0008662,97.5817,190.319,304.5995,55.4425,0,999,9211,0.0012355,0.00030199,0,3830532,0 SPACEBEE-110,1 48899U 21059W   23054.84126724  .00030199  00000-0  12355-2 0  9993,2 48899  97.5817 190.3190 0008662 304.5995  55.4425 15.24248110 92113,2021-059W,48899,6871.181,94.473,498.998,487.094,0,2023/4/21
GENERATED VIA SPACETRACK.ORG API,18 SPCS,48899,SPACEBEE-110,PAYLOAD,U,21059W,2023/2/24 8:47,816896,15.24283822,0.0008634,97.5817,190.8502,302.8339,57.2066,0,999,9219,0.0013177,0.00032256,0,3831587,0 SPACEBEE-110,1 48899U 21059W   23055.36644464  .00032256  00000-0  13177-2 0  9996,2 48899  97.5817 190.8502 0008634 302.8339  57.2066 15.24283822 92195,2021-059W,48899,6871.074,94.471,498.871,487.006,0,2023/4/22
GENERATED VIA SPACETRACK.ORG API,18 SPCS,48899,SPACEBEE-110,PAYLOAD,U,21059W,2023/2/24 8:47,816896,15.24283822,0.0008634,97.5817,190.8502,302.8339,57.2066,0,999,9219,0.0013177,0.00032256,0,3832867,0 SPACEBEE-110,1 48899U 21059W   23055.36644464  .00032256  00000-0  13177-2 0  9996,2 48899  97.5817 190.8502 0008634 302.8339  57.2066 15.24283822 92195,2021-059W,48899,6871.074,94.471,498.871,487.006,0,2023/4/23
GENERATED VIA SPACETRACK.ORG API,18 SPCS,48899,SPACEBEE-110,PAYLOAD,U,21059W,2023/2/24 19:49,514240,15.24305556,0.0008615,97.5816,191.3151,301.1053,58.9338,0,999,9226,0.00098363,0.00024048,0,3835059,0 SPACEBEE-110,1 48899U 21059W   23055.82596660  .00024048  00000-0  98363-3 0  9992,2 48899  97.5816 191.3151 0008615 301.1053  58.9338 15.24305556 92261,2021-059W,48899,6871.009,94.469,498.793,486.954,0,2023/4/24
GENERATED VIA SPACETRACK.ORG API,18 SPCS,48899,SPACEBEE-110,PAYLOAD,U,21059W,2023/2/25 8:25,217280,15.24334339,0.0008648,97.5813,191.8465,299.2408,60.7964,0,999,9234,0.0010435,0.00025544,0,3837312,0 SPACEBEE-110,1 48899U 21059W   23056.35112520  .00025544  00000-0  10435-2 0  9995,2 48899  97.5813 191.8465 0008648 299.2408  60.7964 15.24334339 92344,2021-059W,48899,6870.922,94.467,498.729,486.845,0,2023/4/25
